[{"OBJECT_NAME":"STARLINK-3273","OBJECT_ID":"2021-125AM","EPOCH":"2025-10-05T04:20:52.127232","MEAN_MOTION":15.08840295,"ECCENTRICITY":0.0001422,"INCLINATION":53.2164,"RA_OF_ASC_NODE":237.2265,"ARG_OF_PERICENTER":87.2754,"MEAN_ANOMALY":272.8401,"EPHEMERIS_TYPE":0,"CLASSIFICATION_TYPE":"U","NORAD_CAT_ID":50191,"ELEMENT_SET_NO":999,"REV_AT_EPOCH":21297,"BSTAR":3.6448e-5,"MEAN_MOTION_DOT":2.92e-6,"MEAN_MOTION_DDOT":0},{"OBJECT_NAME":"STARLINK-3259","OBJECT_ID":"2021-125AN","EPOCH":"2025-10-05T02:26:56.833152","MEAN_MOTION":15.08835899,"ECCENTRICITY":0.0001528,"INCLINATION":53.2167,"RA_OF_ASC_NODE":217.5787,"ARG_OF_PERICENTER":93.152,"MEAN_ANOMALY":266.9647,"EPHEMERIS_TYPE":0,"CLASSIFICATION_TYPE":"U","NORAD_CAT_ID":50192,"ELEMENT_SET_NO":999,"REV_AT_EPOCH":21324,"BSTAR":3.2033e-5,"MEAN_MOTION_DOT":2.22e-6,"MEAN_MOTION_DDOT":0},{"OBJECT_NAME":"STARLINK-3261","OBJECT_ID":"2021-125AP","EPOCH":"2025-10-05T02:42:50.391072","MEAN_MOTION":15.08840224,"ECCENTRICITY":0.0001816,"INCLINATION":53.2174,"RA_OF_ASC_NODE":217.528,"ARG_OF_PERICENTER":92.9492,"MEAN_ANOMALY":267.1708,"EPHEMERIS_TYPE":0,"CLASSIFICATION_TYPE":"U","NORAD_CAT_ID":50193,"ELEMENT_SET_NO":999,"REV_AT_EPOCH":21329,"BSTAR":7.3003e-5,"MEAN_MOTION_DOT":8.74e-6,"MEAN_MOTION_DDOT":0},{"OBJECT_NAME":"STARLINK-3269","OBJECT_ID":"2021-125AQ","EPOCH":"2025-10-04T22:21:56.441664","MEAN_MOTION":15.46879716,"ECCENTRICITY":0.0003673,"INCLINATION":53.2208,"RA_OF_ASC_NODE":173.9437,"ARG_OF_PERICENTER":129.2446,"MEAN_ANOMALY":230.889,"EPHEMERIS_TYPE":0,"CLASSIFICATION_TYPE":"U","NORAD_CAT_ID":50194,"ELEMENT_SET_NO":999,"REV_AT_EPOCH":21390,"BSTAR":0.0012935,"MEAN_MOTION_DOT":0.00066229,"MEAN_MOTION_DDOT":0},{"OBJECT_NAME":"STARLINK-3266","OBJECT_ID":"2021-125AR","EPOCH":"2025-10-05T02:37:31.971648","MEAN_MOTION":15.08830111,"ECCENTRICITY":0.0001516,"INCLINATION":53.2162,"RA_OF_ASC_NODE":217.5477,"ARG_OF_PERICENTER":86.5494,"MEAN_ANOMALY":273.5671,"EPHEMERIS_TYPE":0,"CLASSIFICATION_TYPE":"U","NORAD_CAT_ID":50195,"ELEMENT_SET_NO":999,"REV_AT_EPOCH":21324,"BSTAR":-9.2638e-5,"MEAN_MOTION_DOT":-1.762e-5,"MEAN_MOTION_DDOT":0},{"OBJECT_NAME":"STARLINK-3267","OBJECT_ID":"2021-125AT","EPOCH":"2025-10-05T03:51:43.720416","MEAN_MOTION":15.08859006,"ECCENTRICITY":0.0001447,"INCLINATION":53.2148,"RA_OF_ASC_NODE":217.3162,"ARG_OF_PERICENTER":91.0967,"MEAN_ANOMALY":269.019,"EPHEMERIS_TYPE":0,"CLASSIFICATION_TYPE":"U","NORAD_CAT_ID":50197,"ELEMENT_SET_NO":999,"REV_AT_EPOCH":21330,"BSTAR":0.00055638,"MEAN_MOTION_DOT":8.582e-5,"MEAN_MOTION_DDOT":0},{"OBJECT_NAME":"STARLINK-3264","OBJECT_ID":"2021-125AU","EPOCH":"2025-10-05T03:30:32.395392","MEAN_MOTION":15.08836124,"ECCENTRICITY":0.0001434,"INCLINATION":53.2171,"RA_OF_ASC_NODE":217.3829,"ARG_OF_PERICENTER":89.1372,"MEAN_ANOMALY":270.9785,"EPHEMERIS_TYPE":0,"CLASSIFICATION_TYPE":"U","NORAD_CAT_ID":50198,"ELEMENT_SET_NO":999,"REV_AT_EPOCH":21325,"BSTAR":6.0039e-5,"MEAN_MOTION_DOT":6.68e-6,"MEAN_MOTION_DDOT":0},{"OBJECT_NAME":"STARLINK-3270","OBJECT_ID":"2021-125AV","EPOCH":"2025-10-05T01:28:38.626752","MEAN_MOTION":15.08834534,"ECCENTRICITY":0.0001608,"INCLINATION":53.2164,"RA_OF_ASC_NODE":217.7616,"ARG_OF_PERICENTER":106.6493,"MEAN_ANOMALY":253.4675,"EPHEMERIS_TYPE":0,"CLASSIFICATION_TYPE":"U","NORAD_CAT_ID":50199,"ELEMENT_SET_NO":999,"REV_AT_EPOCH":21323,"BSTAR":7.6625e-5,"MEAN_MOTION_DOT":9.32e-6,"MEAN_MOTION_DDOT":0},{"OBJECT_NAME":"STARLINK-3235","OBJECT_ID":"2021-125AW","EPOCH":"2025-10-05T03:35:50.012160","MEAN_MOTION":15.08833247,"ECCENTRICITY":0.0001409,"INCLINATION":53.2177,"RA_OF_ASC_NODE":217.3282,"ARG_OF_PERICENTER":90.4587,"MEAN_ANOMALY":269.6566,"EPHEMERIS_TYPE":0,"CLASSIFICATION_TYPE":"U","NORAD_CAT_ID":50200,"ELEMENT_SET_NO":999,"REV_AT_EPOCH":21326,"BSTAR":1.8638e-5,"MEAN_MOTION_DOT":9.0e-8,"MEAN_MOTION_DDOT":0},{"OBJECT_NAME":"STARLINK-3255","OBJECT_ID":"2021-125AX","EPOCH":"2025-10-05T03:26:09.494880","MEAN_MOTION":15.52917218,"ECCENTRICITY":0.0004896,"INCLINATION":53.2088,"RA_OF_ASC_NODE":181.4194,"ARG_OF_PERICENTER":77.5851,"MEAN_ANOMALY":282.5708,"EPHEMERIS_TYPE":0,"CLASSIFICATION_TYPE":"U","NORAD_CAT_ID":50201,"ELEMENT_SET_NO":999,"REV_AT_EPOCH":21376,"BSTAR":0.00087268,"MEAN_MOTION_DOT":0.00055139,"MEAN_MOTION_DDOT":0},{"OBJECT_NAME":"STARLINK-3256","OBJECT_ID":"2021-125AY","EPOCH":"2025-10-05T02:58:44.107968","MEAN_MOTION":15.08842402,"ECCENTRICITY":0.0001419,"INCLINATION":53.215,"RA_OF_ASC_NODE":217.4796,"ARG_OF_PERICENTER":94.2675,"MEAN_ANOMALY":265.8479,"EPHEMERIS_TYPE":0,"CLASSIFICATION_TYPE":"U","NORAD_CAT_ID":50202,"ELEMENT_SET_NO":999,"REV_AT_EPOCH":21324,"BSTAR":4.1849e-5,"MEAN_MOTION_DOT":3.78e-6,"MEAN_MOTION_DDOT":0},{"OBJECT_NAME":"STARLINK-3257","OBJECT_ID":"2021-125AZ","EPOCH":"2025-10-05T03:47:49.839072","MEAN_MOTION":15.08842073,"ECCENTRICITY":0.0002039,"INCLINATION":53.2165,"RA_OF_ASC_NODE":217.4161,"ARG_OF_PERICENTER":93.6506,"MEAN_ANOMALY":266.4719,"EPHEMERIS_TYPE":0,"CLASSIFICATION_TYPE":"U","NORAD_CAT_ID":50203,"ELEMENT_SET_NO":999,"REV_AT_EPOCH":21331,"BSTAR":-1.159e-5,"MEAN_MOTION_DOT":-4.73e-6,"MEAN_MOTION_DDOT":0},{"OBJECT_NAME":"STARLINK-3254","OBJECT_ID":"2021-125BA","EPOCH":"2025-10-05T03:10:44.141376","MEAN_MOTION":15.08849233,"ECCENTRICITY":0.0001621,"INCLINATION":53.2161,"RA_OF_ASC_NODE":217.4551,"ARG_OF_PERICENTER":93.4206,"MEAN_ANOMALY":266.6972,"EPHEMERIS_TYPE":0,"CLASSIFICATION_TYPE":"U","NORAD_CAT_ID":50204,"ELEMENT_SET_NO":999,"REV_AT_EPOCH":21330,"BSTAR":0.0010562,"MEAN_MOTION_DOT":0.00016565,"MEAN_MOTION_DDOT":0},{"OBJECT_NAME":"STARLINK-3260","OBJECT_ID":"2021-125BB","EPOCH":"2025-10-05T01:44:34.628928","MEAN_MOTION":15.0885307,"ECCENTRICITY":9.8e-5,"INCLINATION":53.2152,"RA_OF_ASC_NODE":187.7148,"ARG_OF_PERICENTER":86.7877,"MEAN_ANOMALY":273.3227,"EPHEMERIS_TYPE":0,"CLASSIFICATION_TYPE":"U","NORAD_CAT_ID":50205,"ELEMENT_SET_NO":999,"REV_AT_EPOCH":21366,"BSTAR":0.00010453,"MEAN_MOTION_DOT":1.377e-5,"MEAN_MOTION_DDOT":0},{"OBJECT_NAME":"STARLINK-3258","OBJECT_ID":"2021-125BC","EPOCH":"2025-10-05T01:24:42.741792","MEAN_MOTION":15.08838683,"ECCENTRICITY":0.0001427,"INCLINATION":53.216,"RA_OF_ASC_NODE":217.6681,"ARG_OF_PERICENTER":100.2347,"MEAN_ANOMALY":259.8806,"EPHEMERIS_TYPE":0,"CLASSIFICATION_TYPE":"U","NORAD_CAT_ID":50206,"ELEMENT_SET_NO":999,"REV_AT_EPOCH":21116,"BSTAR":3.599e-6,"MEAN_MOTION_DOT":-2.31e-6,"MEAN_MOTION_DDOT":0},{"OBJECT_NAME":"STARLINK-3262","OBJECT_ID":"2021-125BD","EPOCH":"2025-10-05T01:44:32.810208","MEAN_MOTION":15.08839531,"ECCENTRICITY":0.0001482,"INCLINATION":53.2176,"RA_OF_ASC_NODE":217.7124,"ARG_OF_PERICENTER":99.6703,"MEAN_ANOMALY":260.4457,"EPHEMERIS_TYPE":0,"CLASSIFICATION_TYPE":"U","NORAD_CAT_ID":50207,"ELEMENT_SET_NO":999,"REV_AT_EPOCH":21123,"BSTAR":6.3582e-5,"MEAN_MOTION_DOT":7.24e-6,"MEAN_MOTION_DDOT":0},{"OBJECT_NAME":"STARLINK-3323","OBJECT_ID":"2022-001B","EPOCH":"2025-10-05T00:35:39.301152","MEAN_MOTION":15.08844099,"ECCENTRICITY":0.0001341,"INCLINATION":53.2169,"RA_OF_ASC_NODE":137.926,"ARG_OF_PERICENTER":88.6856,"MEAN_ANOMALY":271.429,"EPHEMERIS_TYPE":0,"CLASSIFICATION_TYPE":"U","NORAD_CAT_ID":50804,"ELEMENT_SET_NO":999,"REV_AT_EPOCH":20704,"BSTAR":5.0885e-5,"MEAN_MOTION_DOT":5.22e-6,"MEAN_MOTION_DDOT":0}]
