STARLINK-3273           
1 50191U 21125AM  25278.18115888  .00000292  00000+0  36448-4 0  9992
2 50191  53.2164 237.2265 0001422  87.2754 272.8401 15.08840295212975
STARLINK-3259           
1 50192U 21125AN  25278.10204668  .00000222  00000+0  32033-4 0  9999
2 50192  53.2167 217.5787 0001528  93.1520 266.9647 15.08835899213244
STARLINK-3261           
1 50193U 21125AP  25278.11308323  .00000874  00000+0  73003-4 0  9999
2 50193  53.2174 217.5280 0001816  92.9492 267.1708 15.08840224213290
STARLINK-3269           
1 50194U 21125AQ  25277.93190326  .00066229  00000+0  12935-2 0  9992
2 50194  53.2208 173.9437 0003673 129.2446 230.8890 15.46879716213901
STARLINK-3266           
1 50195U 21125AR  25278.10939782 -.00001762  00000+0 -92638-4 0  9993
2 50195  53.2162 217.5477 0001516  86.5494 273.5671 15.08830111213244
STARLINK-3267           
1 50197U 21125AT  25278.16092269  .00008582  00000+0  55638-3 0  9994
2 50197  53.2148 217.3162 0001447  91.0967 269.0190 15.08859006213305
STARLINK-3264           
1 50198U 21125AU  25278.14620828  .00000668  00000+0  60039-4 0  9990
2 50198  53.2171 217.3829 0001434  89.1372 270.9785 15.08836124213257
STARLINK-3270           
1 50199U 21125AV  25278.06155818  .00000932  00000+0  76625-4 0  9996
2 50199  53.2164 217.7616 0001608 106.6493 253.4675 15.08834534213235
STARLINK-3235           
1 50200U 21125AW  25278.14988440  .00000009  00000+0  18638-4 0  9998
2 50200  53.2177 217.3282 0001409  90.4587 269.6566 15.08833247213261
STARLINK-3255           
1 50201U 21125AX  25278.14316545  .00055139  00000+0  87268-3 0  9998
2 50201  53.2088 181.4194 0004896  77.5851 282.5708 15.52917218213766
STARLINK-3256           
1 50202U 21125AY  25278.12412162  .00000378  00000+0  41849-4 0  9990
2 50202  53.2150 217.4796 0001419  94.2675 265.8479 15.08842402213248
STARLINK-3257           
1 50203U 21125AZ  25278.15821573 -.00000473  00000+0 -11590-4 0  9992
2 50203  53.2165 217.4161 0002039  93.6506 266.4719 15.08842073213312
STARLINK-3254           
1 50204U 21125BA  25278.13245534  .00016565  00000+0  10562-2 0  9991
2 50204  53.2161 217.4551 0001621  93.4206 266.6972 15.08849233213300
STARLINK-3260           
1 50205U 21125BB  25278.07262302  .00001377  00000+0  10453-3 0  9992
2 50205  53.2152 187.7148 0000980  86.7877 273.3227 15.08853070213669
STARLINK-3258           
1 50206U 21125BC  25278.05882803 -.00000231  00000+0  35990-5 0  9999
2 50206  53.2160 217.6681 0001427 100.2347 259.8806 15.08838683211163
STARLINK-3262           
1 50207U 21125BD  25278.07260197  .00000724  00000+0  63582-4 0  9991
2 50207  53.2176 217.7124 0001482  99.6703 260.4457 15.08839531211233
STARLINK-3323           
1 50804U 22001B   25278.02476043  .00000522  00000+0  50885-4 0  9990
2 50804  53.2169 137.9260 0001341  88.6856 271.4290 15.08844099207049
